[{"OBJECT_NAME":"NIMIQ 2","OBJECT_ID":"2002-062A","EPOCH":"2026-03-05T13:28:37.164864","MEAN_MOTION":1.00272684,"ECCENTRICITY":0.0006546,"INCLINATION":9.2074,"RA_OF_ASC_NODE":57.9709,"ARG_OF_PERICENTER":291.1375,"MEAN_ANOMALY":267.1441,"EPHEMERIS_TYPE":0,"CLASSIFICATION_TYPE":"U","NORAD_CAT_ID":27632,"ELEMENT_SET_NO":999,"REV_AT_EPOCH":4314,"BSTAR":0,"MEAN_MOTION_DOT":-7.3e-7,"MEAN_MOTION_DDOT":0},{"OBJECT_NAME":"ANIK F2","OBJECT_ID":"2004-027A","EPOCH":"2026-03-05T15:10:49.865376","MEAN_MOTION":1.00272648,"ECCENTRICITY":0.00031,"INCLINATION":3.0172,"RA_OF_ASC_NODE":80.8381,"ARG_OF_PERICENTER":299.2939,"MEAN_ANOMALY":259.8235,"EPHEMERIS_TYPE":0,"CLASSIFICATION_TYPE":"U","NORAD_CAT_ID":28378,"ELEMENT_SET_NO":999,"REV_AT_EPOCH":4022,"BSTAR":0,"MEAN_MOTION_DOT":-5.6e-7,"MEAN_MOTION_DDOT":0},{"OBJECT_NAME":"ANIK F1R","OBJECT_ID":"2005-036A","EPOCH":"2026-03-05T15:11:57.257376","MEAN_MOTION":1.00272331,"ECCENTRICITY":0.0003008,"INCLINATION":4.048,"RA_OF_ASC_NODE":77.8764,"ARG_OF_PERICENTER":303.5219,"MEAN_ANOMALY":262.6619,"EPHEMERIS_TYPE":0,"CLASSIFICATION_TYPE":"U","NORAD_CAT_ID":28868,"ELEMENT_SET_NO":999,"REV_AT_EPOCH":4541,"BSTAR":0,"MEAN_MOTION_DOT":-8.1e-7,"MEAN_MOTION_DDOT":0},{"OBJECT_NAME":"ANIK F3","OBJECT_ID":"2007-009A","EPOCH":"2026-03-05T15:08:42.567936","MEAN_MOTION":1.00273837,"ECCENTRICITY":0.0002804,"INCLINATION":0.93,"RA_OF_ASC_NODE":85.1938,"ARG_OF_PERICENTER":269.5086,"MEAN_ANOMALY":277.1405,"EPHEMERIS_TYPE":0,"CLASSIFICATION_TYPE":"U","NORAD_CAT_ID":31102,"ELEMENT_SET_NO":999,"REV_AT_EPOCH":4552,"BSTAR":0,"MEAN_MOTION_DOT":-8.0e-8,"MEAN_MOTION_DDOT":0},{"OBJECT_NAME":"NIMIQ 4","OBJECT_ID":"2008-044A","EPOCH":"2026-03-05T17:49:18.222528","MEAN_MOTION":1.00270956,"ECCENTRICITY":0.0002016,"INCLINATION":0.0197,"RA_OF_ASC_NODE":224.1795,"ARG_OF_PERICENTER":133.6419,"MEAN_ANOMALY":350.9571,"EPHEMERIS_TYPE":0,"CLASSIFICATION_TYPE":"U","NORAD_CAT_ID":33373,"ELEMENT_SET_NO":999,"REV_AT_EPOCH":6394,"BSTAR":0,"MEAN_MOTION_DOT":-2.27e-6,"MEAN_MOTION_DDOT":0},{"OBJECT_NAME":"TELSTAR 11N","OBJECT_ID":"2009-009A","EPOCH":"2026-03-05T10:23:47.388768","MEAN_MOTION":1.00268548,"ECCENTRICITY":0.0002428,"INCLINATION":0.0203,"RA_OF_ASC_NODE":139.7219,"ARG_OF_PERICENTER":196.1911,"MEAN_ANOMALY":305.633,"EPHEMERIS_TYPE":0,"CLASSIFICATION_TYPE":"U","NORAD_CAT_ID":34111,"ELEMENT_SET_NO":999,"REV_AT_EPOCH":4520,"BSTAR":0,"MEAN_MOTION_DOT":-2.59e-6,"MEAN_MOTION_DDOT":0},{"OBJECT_NAME":"TERRESTAR-1","OBJECT_ID":"2009-035A","EPOCH":"2026-03-05T13:28:07.212576","MEAN_MOTION":1.00273306,"ECCENTRICITY":0.0002931,"INCLINATION":5.0946,"RA_OF_ASC_NODE":48.8323,"ARG_OF_PERICENTER":303.9271,"MEAN_ANOMALY":261.5648,"EPHEMERIS_TYPE":0,"CLASSIFICATION_TYPE":"U","NORAD_CAT_ID":35496,"ELEMENT_SET_NO":999,"REV_AT_EPOCH":6109,"BSTAR":0,"MEAN_MOTION_DOT":-6.2e-7,"MEAN_MOTION_DDOT":0},{"OBJECT_NAME":"NIMIQ 5","OBJECT_ID":"2009-050A","EPOCH":"2026-03-05T15:11:39.259392","MEAN_MOTION":1.00272739,"ECCENTRICITY":0.0002636,"INCLINATION":0.0499,"RA_OF_ASC_NODE":269.8506,"ARG_OF_PERICENTER":77.0405,"MEAN_ANOMALY":331.6705,"EPHEMERIS_TYPE":0,"CLASSIFICATION_TYPE":"U","NORAD_CAT_ID":35873,"ELEMENT_SET_NO":999,"REV_AT_EPOCH":6030,"BSTAR":0,"MEAN_MOTION_DOT":-2.64e-6,"MEAN_MOTION_DDOT":0},{"OBJECT_NAME":"SKYTERRA 1","OBJECT_ID":"2010-061A","EPOCH":"2026-03-05T10:05:34.135008","MEAN_MOTION":1.00271575,"ECCENTRICITY":0.0001605,"INCLINATION":4.9044,"RA_OF_ASC_NODE":50.913,"ARG_OF_PERICENTER":300.5443,"MEAN_ANOMALY":221.7477,"EPHEMERIS_TYPE":0,"CLASSIFICATION_TYPE":"U","NORAD_CAT_ID":37218,"ELEMENT_SET_NO":999,"REV_AT_EPOCH":5615,"BSTAR":0,"MEAN_MOTION_DOT":-1.24e-6,"MEAN_MOTION_DDOT":0},{"OBJECT_NAME":"TELSTAR 14R","OBJECT_ID":"2011-021A","EPOCH":"2026-03-05T11:59:08.244672","MEAN_MOTION":1.0027274,"ECCENTRICITY":0.000238,"INCLINATION":0.0294,"RA_OF_ASC_NODE":257.9205,"ARG_OF_PERICENTER":93.2701,"MEAN_ANOMALY":288.8177,"EPHEMERIS_TYPE":0,"CLASSIFICATION_TYPE":"U","NORAD_CAT_ID":37602,"ELEMENT_SET_NO":999,"REV_AT_EPOCH":5479,"BSTAR":0,"MEAN_MOTION_DOT":-2.88e-6,"MEAN_MOTION_DDOT":0},{"OBJECT_NAME":"NIMIQ 6","OBJECT_ID":"2012-026A","EPOCH":"2026-03-05T13:33:51.662592","MEAN_MOTION":1.0027088,"ECCENTRICITY":0.0002597,"INCLINATION":0.0528,"RA_OF_ASC_NODE":279.8213,"ARG_OF_PERICENTER":62.4948,"MEAN_ANOMALY":293.329,"EPHEMERIS_TYPE":0,"CLASSIFICATION_TYPE":"U","NORAD_CAT_ID":38342,"ELEMENT_SET_NO":999,"REV_AT_EPOCH":4937,"BSTAR":0,"MEAN_MOTION_DOT":-1.81e-6,"MEAN_MOTION_DDOT":0},{"OBJECT_NAME":"ANIK G1","OBJECT_ID":"2013-014A","EPOCH":"2026-03-05T15:11:57.257376","MEAN_MOTION":1.00271887,"ECCENTRICITY":0.0002973,"INCLINATION":0.0521,"RA_OF_ASC_NODE":269.6575,"ARG_OF_PERICENTER":54.822,"MEAN_ANOMALY":319.5562,"EPHEMERIS_TYPE":0,"CLASSIFICATION_TYPE":"U","NORAD_CAT_ID":39127,"ELEMENT_SET_NO":999,"REV_AT_EPOCH":4721,"BSTAR":0,"MEAN_MOTION_DOT":-8.1e-7,"MEAN_MOTION_DDOT":0},{"OBJECT_NAME":"TELSTAR 12V","OBJECT_ID":"2015-068A","EPOCH":"2026-03-05T15:37:54.768576","MEAN_MOTION":1.00272211,"ECCENTRICITY":0.0002406,"INCLINATION":0.0134,"RA_OF_ASC_NODE":219.0958,"ARG_OF_PERICENTER":132.9622,"MEAN_ANOMALY":30.7943,"EPHEMERIS_TYPE":0,"CLASSIFICATION_TYPE":"U","NORAD_CAT_ID":41036,"ELEMENT_SET_NO":999,"REV_AT_EPOCH":3758,"BSTAR":0,"MEAN_MOTION_DOT":-1.26e-6,"MEAN_MOTION_DDOT":0},{"OBJECT_NAME":"VIASAT-2","OBJECT_ID":"2017-029A","EPOCH":"2026-03-05T01:41:06.120672","MEAN_MOTION":1.00271692,"ECCENTRICITY":5.707e-5,"INCLINATION":0.0216,"RA_OF_ASC_NODE":241.0889,"ARG_OF_PERICENTER":139.0997,"MEAN_ANOMALY":97.9902,"EPHEMERIS_TYPE":0,"CLASSIFICATION_TYPE":"U","NORAD_CAT_ID":42740,"ELEMENT_SET_NO":999,"REV_AT_EPOCH":3216,"BSTAR":0,"MEAN_MOTION_DOT":-2.74e-6,"MEAN_MOTION_DDOT":0},{"OBJECT_NAME":"LEO 1 (LEO VANTAGE 1)","OBJECT_ID":"2018-004C","EPOCH":"2026-03-05T16:23:09.745152","MEAN_MOTION":14.67137126,"ECCENTRICITY":0.0353267,"INCLINATION":99.2479,"RA_OF_ASC_NODE":329.4826,"ARG_OF_PERICENTER":37.1668,"MEAN_ANOMALY":325.3434,"EPHEMERIS_TYPE":0,"CLASSIFICATION_TYPE":"U","NORAD_CAT_ID":43113,"ELEMENT_SET_NO":999,"REV_AT_EPOCH":42230,"BSTAR":0.00040296,"MEAN_MOTION_DOT":5.814e-5,"MEAN_MOTION_DDOT":0},{"OBJECT_NAME":"TELSTAR 19V","OBJECT_ID":"2018-059A","EPOCH":"2026-03-05T11:59:08.244672","MEAN_MOTION":1.00271487,"ECCENTRICITY":6.96e-5,"INCLINATION":0.0204,"RA_OF_ASC_NODE":164.1099,"ARG_OF_PERICENTER":262.4286,"MEAN_ANOMALY":213.4631,"EPHEMERIS_TYPE":0,"CLASSIFICATION_TYPE":"U","NORAD_CAT_ID":43562,"ELEMENT_SET_NO":999,"REV_AT_EPOCH":2810,"BSTAR":0,"MEAN_MOTION_DOT":-2.87e-6,"MEAN_MOTION_DDOT":0},{"OBJECT_NAME":"TELSTAR 18V","OBJECT_ID":"2018-069A","EPOCH":"2026-03-05T18:54:38.721024","MEAN_MOTION":1.00267957,"ECCENTRICITY":0.0002046,"INCLINATION":0.0206,"RA_OF_ASC_NODE":171.4994,"ARG_OF_PERICENTER":178.92,"MEAN_ANOMALY":234.7731,"EPHEMERIS_TYPE":0,"CLASSIFICATION_TYPE":"U","NORAD_CAT_ID":43611,"ELEMENT_SET_NO":999,"REV_AT_EPOCH":2759,"BSTAR":0,"MEAN_MOTION_DOT":0,"MEAN_MOTION_DDOT":0}]
